CRE (WAAS/PRN 138)      
1 28868U 05036A   23123.60381914 -.00000060  00000+0  00000+0 0  9994
2 28868   1.3738  90.3887 0002958 337.2630 263.6829  1.00271742 35018
IOR-W (EGNOS/PRN 126)   
1 28899U 05044A   23123.50070394  .00000024  00000+0  00000+0 0  9992
2 28899   3.7710  40.0126 0002935  10.0793  55.1929  1.00271888 64082
QZS-1 (QZSS/PRN 183)    
1 37158U 10045A   23123.33363403 -.00000045  00000+0  00000+0 0  9998
2 37158  42.6795 128.9867 0760138 270.3777  80.3235  1.00288239 46293
GSAT-8 (GAGAN/PRN 127)  
1 37605U 11022A   23123.56891576  .00000097  00000+0  00000+0 0  9999
2 37605   0.0588  83.3395 0004275 227.9356 169.8430  1.00273943 41787
LUCH 5A (SDCM/PRN 140)  
1 37951U 11074B   23123.59556334 -.00000031  00000+0  00000+0 0  9992
2 37951   5.8306  91.7924 0004211 328.3747 182.3595  1.00270466 41759
SES-5 (EGNOS/PRN 136)   
1 38652U 12036A   23123.27394067  .00000046  00000+0  00000+0 0  9993
2 38652   0.0494 296.1297 0002124 107.1286 281.2664  1.00272326 33045
GSAT-10 (GAGAN/PRN 128) 
1 38779U 12051B   23123.56578286 -.00000153  00000+0  00000+0 0  9999
2 38779   0.0275 258.5751 0001874  78.7588 170.6008  1.00273398 38686
LUCH 5B (SDCM/PRN 125)  
1 38977U 12061A   23123.12628351 -.00000121  00000+0  00000+0 0  9996
2 38977   7.9888  60.1381 0003194  35.9145 153.8785  1.00272622 38739
ASTRA 5B (EGNOS/PRN 123)
1 39617U 14011B   23123.49425374  .00000167  00000+0  00000+0 0  9994
2 39617   0.0581 310.3712 0003315 100.3227  19.8671  1.00271455 33234
LUCH 5V (SDCM/PRN 141)  
1 39727U 14023A   23123.57248397 -.00000255  00000+0  00000+0 0  9995
2 39727   2.2734  77.4719 0001991 355.2944  89.2917  1.00274711 32920
GSAT-15 (GAGAN/PRN 139) 
1 41028U 15065A   23123.07651242 -.00000246  00000+0  00000+0 0  9991
2 41028   0.0599  93.2152 0003159 330.9304 277.6175  1.00270959 27368
E 117 W B (WAAS/PRN 131)
1 41589U 16038B   23122.89124205  .00000000  00000+0  00000+0 0  9994
2 41589   0.0131 108.0131 0000119  59.9011 256.4625  1.00272914 25221
SES-15 (WAAS/PRN 133)   
1 42709U 17026A   23123.57704039  .00000073  00000+0  00000+0 0  9992
2 42709   0.0464  59.6031 0000406 340.3154 259.8880  1.00270690 22742
QZS-2 (QZSS/PRN 184)    
1 42738U 17028A   23122.71362049 -.00000217  00000+0  00000+0 0  9993
2 42738  41.2451 259.6381 0739767 270.7098  84.5028  1.00249388 21701
QZS-3 (QZSS/PRN 189)    
1 42917U 17048A   23123.51883763 -.00000335  00000+0  00000+0 0  9995
2 42917   0.0545 179.4402 0002500 222.8323 132.6709  1.00268837 20932
QZS-4 (QZSS/PRN 185)    
1 42965U 17062A   23123.47975052 -.00000305  00000+0  00000+0 0  9999
2 42965  40.6772 358.0150 0746392 270.7652 264.2327  1.00266846 20377
BEIDOU-3 G1 (PRN 130)   
1 43683U 18085A   23123.44417080 -.00000264  00000+0  00000+0 0  9996
2 43683   1.2568 134.0181 0004715 311.4632  75.5156  1.00266933 16627
BEIDOU-3 G2 (PRN 144)   
1 45344U 20017A   23123.56567488 -.00000128  00000+0  00000+0 0  9990
2 45344   2.0010   9.5150 0002603  73.0267  62.3397  1.00271133 11821
BEIDOU-3 G3 (PRN 143)   
1 45807U 20040A   23123.57082889 -.00000342  00000+0  00000+0 0  9996
2 45807   0.7813 323.6210 0006028 327.5071 246.1824  1.00272388 10631
GALAXY 30 (WAAS/PRN 135)
1 46114U 20056C   23123.58194065  .00000050  00000+0  00000+0 0  9991
2 46114   0.0086 267.5912 0002241 136.9067 261.2138  1.00270120  9853
